{
  "type": "FeatureCollection",
  "features": [
    {
      "type": "Feature",
      "properties": {
        "norad_id": 67071,
        "name": "KZ-11 R/B",
        "group": "last-30-days",
        "lat": 26.885542492965918,
        "lon": -130.56652293807645,
        "alt_km": 1230.6112793275252,
        "timestamp": "2025-12-15T22:44:27.663412+00:00",
        "meta_object_name": "KZ-11 R/B",
        "meta_object_id": "2025-296C",
        "meta_epoch": "2025-12-15T07:17:23.067744",
        "meta_mean_motion": 14.54561084,
        "meta_eccentricity": 0.0814627,
        "meta_inclination": 41.3063,
        "meta_ra_of_asc_node": 88.0815,
        "meta_arg_of_pericenter": 333.3345,
        "meta_mean_anomaly": 22.7658,
        "meta_ephemeris_type": 0,
        "meta_classification_type": "U",
        "meta_norad_cat_id": 67071,
        "meta_element_set_no": 999,
        "meta_rev_at_epoch": 33,
        "meta_bstar": 0.00012185,
        "meta_mean_motion_dot": 0.01195702,
        "meta_mean_motion_ddot": 4.9919e-06,
        "tle_line1": "1 67071U 25296C   25349.30373921  .01195702  49919-5  12185-3 0  9998",
        "tle_line2": "2 67071  41.3063  88.0815 0814627 333.3345  22.7658 14.54561084   336"
      },
      "geometry": {
        "type": "Point",
        "coordinates": [
          -130.56652293807645,
          26.885542492965918
        ]
      }
    },
    {
      "type": "Feature",
      "properties": {
        "norad_id": 67072,
        "name": "ELECTRON R/B",
        "group": "last-30-days",
        "lat": 29.021690043237864,
        "lon": 133.40605158858588,
        "alt_km": 507.05448235988024,
        "timestamp": "2025-12-15T22:44:27.663422+00:00",
        "meta_object_name": "ELECTRON R/B",
        "meta_object_id": "2025-297A",
        "meta_epoch": "2025-12-15T08:52:39.826560",
        "meta_mean_motion": 15.72961278,
        "meta_eccentricity": 0.02544944,
        "meta_inclination": 97.4819,
        "meta_ra_of_asc_node": 136.9655,
        "meta_arg_of_pericenter": 222.6983,
        "meta_mean_anomaly": 135.4258,
        "meta_ephemeris_type": 0,
        "meta_classification_type": "U",
        "meta_norad_cat_id": 67072,
        "meta_element_set_no": 999,
        "meta_rev_at_epoch": 20,
        "meta_bstar": 0.0012850144,
        "meta_mean_motion_dot": 0.01616174,
        "meta_mean_motion_ddot": 2.25134e-06,
        "tle_line1": "1 67072U 25297A   25349.36990540  .01616174  22513-5  12850-2 0  9998",
        "tle_line2": "2 67072  97.4819 136.9655 0254494 222.6983 135.4258 15.72961278   205"
      },
      "geometry": {
        "type": "Point",
        "coordinates": [
          133.40605158858588,
          29.021690043237864
        ]
      }
    },
    {
      "type": "Feature",
      "properties": {
        "norad_id": 67073,
        "name": "RAISE-4",
        "group": "last-30-days",
        "lat": -25.664358532668714,
        "lon": 141.03241483967494,
        "alt_km": 543.2108393285762,
        "timestamp": "2025-12-15T22:44:27.663434+00:00",
        "meta_object_name": "RAISE-4",
        "meta_object_id": "2025-297B",
        "meta_epoch": "2025-12-15T08:30:53.135424",
        "meta_mean_motion": 15.0714672,
        "meta_eccentricity": 0.00118135,
        "meta_inclination": 97.4849,
        "meta_ra_of_asc_node": 136.8339,
        "meta_arg_of_pericenter": 311.2228,
        "meta_mean_anomaly": 48.7981,
        "meta_ephemeris_type": 0,
        "meta_classification_type": "U",
        "meta_norad_cat_id": 67073,
        "meta_element_set_no": 999,
        "meta_rev_at_epoch": 18,
        "meta_bstar": 0.00027090237,
        "meta_mean_motion_dot": 4.017e-05,
        "meta_mean_motion_ddot": 0,
        "tle_line1": "1 67073U 25297B   25349.35478166  .00004017  00000+0  27090-3 0  9993",
        "tle_line2": "2 67073  97.4849 136.8339 0011813 311.2228  48.7981 15.07146720   181"
      },
      "geometry": {
        "type": "Point",
        "coordinates": [
          141.03241483967494,
          -25.664358532668714
        ]
      }
    },
    {
      "type": "Feature",
      "properties": {
        "norad_id": 67074,
        "name": "ELECTRON KICK STAGE R/B",
        "group": "last-30-days",
        "lat": -81.66756218949803,
        "lon": -158.64156697983697,
        "alt_km": 275.7456219531432,
        "timestamp": "2025-12-15T22:44:27.663445+00:00",
        "meta_object_name": "ELECTRON KICK STAGE R/B",
        "meta_object_id": "2025-297C",
        "meta_epoch": "2025-12-15T09:11:55.588128",
        "meta_mean_motion": 15.54193681,
        "meta_eccentricity": 0.02079064,
        "meta_inclination": 97.4818,
        "meta_ra_of_asc_node": 136.9604,
        "meta_arg_of_pericenter": 259.8871,
        "meta_mean_anomaly": 97.8873,
        "meta_ephemeris_type": 0,
        "meta_classification_type": "U",
        "meta_norad_cat_id": 67074,
        "meta_element_set_no": 999,
        "meta_rev_at_epoch": 19,
        "meta_bstar": 0.0012366887,
        "meta_mean_motion_dot": 0.00215096,
        "meta_mean_motion_ddot": 1.4004196e-05,
        "tle_line1": "1 67074U 25297C   25349.38328227  .00215096  14004-4  12367-2 0  9994",
        "tle_line2": "2 67074  97.4818 136.9604 0207906 259.8871  97.8873 15.54193681   191"
      },
      "geometry": {
        "type": "Point",
        "coordinates": [
          -158.64156697983697,
          -81.66756218949803
        ]
      }
    }
  ]
}